STARLINK-30966          
1 58454U 23183T   25322.88519145  .00001091  00000+0  95835-4 0  9992
2 58454  43.0032 285.6330 0001058 274.2335  85.8386 15.02535959110045
STARLINK-30935          
1 58455U 23183U   25322.20043656 -.00000929  00000+0 -53726-4 0  9992
2 58455  43.0073 289.0943 0001210 261.4743  98.5962 15.02532156109944
STARLINK-30960          
1 58456U 23183V   25322.75610118  .00025091  00000+0  93078-3 0  9994
2 58456  42.9940 227.7062 0000919 256.2423 103.8326 15.27132023110716
STARLINK-30958          
1 58457U 23183W   25321.91898579 -.00000836  00000+0 -46795-4 0  9998
2 58457  43.0025 290.4277 0000856 273.1010  86.9735 15.02539024109907
STARLINK-30962          
1 58458U 23183X   25321.96104285 -.00000524  00000+0 -23690-4 0  9991
2 58458  43.0054 289.8859 0001401 260.4242  99.6442 15.02536216109918
STARLINK-30977          
1 58459U 23183Y   25321.99767414 -.00001857  00000+0 -12239-3 0  9990
2 58459  43.0008 290.1493 0001165 258.9031 101.1680 15.02540894109912
STARLINK-30947          
1 58473U 23186A   25322.33335647  .00031976  00000+0  23727-2 0  9993
2 58473  43.0033 312.8523 0001345 277.5999 200.8912 15.02514051  5851
STARLINK-30995          
1 58474U 23186B   25322.59739325  .00015719  00000+0  53739-3 0  9997
2 58474  42.9996 155.6591 0004168 275.8730  84.1647 15.30045551111093
STARLINK-30941          
1 58475U 23186C   25321.97244733  .00001458  00000+0  12297-3 0  9992
2 58475  43.0059 314.7229 0001697 267.4651  92.5997 15.02533664109044
STARLINK-30980          
1 58476U 23186D   25321.70319533  .00002409  00000+0  19330-3 0  9997
2 58476  43.0043 316.1410 0001171 268.4286  91.6423 15.02539015109004
STARLINK-30965          
1 58477U 23186E   25322.22084968 -.00000633  00000+0 -31746-4 0  9992
2 58477  43.0064 300.1423 0001596 266.5137  93.5523 15.02538327109232
STARLINK-30990          
1 58478U 23186F   25321.96577723 -.00007595  00000+0 -54782-3 0  9997
2 58478  43.0045 314.6718 0001493 271.3982  88.6689 15.02531036109088
STARLINK-30984          
1 58480U 23186H   25321.98564909  .00000281  00000+0  35864-4 0  9998
2 58480  43.0042 313.9576 0000613 280.9535  79.1239 15.02532887109053
STARLINK-30956          
1 58481U 23186J   25322.20147731 -.00001330  00000+0 -83390-4 0  9990
2 58481  43.0062 288.5817 0000730 261.8030  98.2729 15.02539912109365
STARLINK-30997          
1 58482U 23186K   25322.00229773  .00011402  00000+0  85820-3 0  9994
2 58482  43.0047 314.0589 0000903 153.5743 206.5145 15.02517208109056
STARLINK-30994          
1 58483U 23186L   25322.59467597  .00001330  00000+0  57824-4 0  9990
2 58483  42.9954 167.5667 0001185 278.4297  81.6420 15.27583337110811
STARLINK-30991          
1 58484U 23186M   25322.24822552  .00000026  00000+0  16990-4 0  9999
2 58484  43.0069 312.4876 0000586 288.4320  71.6458 15.02535792109088
STARLINK-30979          
1 58485U 23186N   25321.29434774  .00000277  00000+0  35585-4 0  9998
2 58485  43.0071 318.2369 0001474 271.8789  88.1884 15.02535645108931
STARLINK-31005          
1 58486U 23186P   25321.68987895  .00001070  00000+0  94195-4 0  9993
2 58486  43.0060 316.0420 0001413 250.0956 109.9734 15.02554747108998
STARLINK-30987          
1 58487U 23186Q   25321.68655239 -.00000553  00000+0 -25900-4 0  9993
2 58487  43.0042 316.0140 0000770 286.0721  74.0036 15.02535764108997
STARLINK-31000          
1 58488U 23186R   25321.28434994  .00001214  00000+0  10493-3 0  9996
2 58488  43.0028 318.1564 0002694 270.0133  90.0400 15.02550767108939
STARLINK-30993          
1 58489U 23186S   25322.01230194  .00007942  00000+0  60279-3 0  9996
2 58489  43.0014 314.1571 0001194 282.2716  77.7992 15.02505003109049
STARLINK-30978          
1 58490U 23186T   25322.00894502  .00004133  00000+0  32083-3 0  9997
2 58490  43.0030 314.1350 0001515 271.8288  88.2381 15.02538346109044
STARLINK-30953          
1 58491U 23186U   25322.88225931  .00000163  00000+0  15461-4 0  9999
2 58491  42.9987 173.2789 0001208 279.5033  80.5682 15.27573071110947
STARLINK-30986          
1 58492U 23186V   25321.99896082 -.00002334  00000+0 -15777-3 0  9995
2 58492  43.0031 314.0577 0000572 273.4550  86.6227 15.02537055109046
STARLINK-30985          
1 58493U 23186W   25321.99562705  .00005028  00000+0  38684-3 0  9991
2 58493  43.0069 314.0355 0001789 262.1003  97.9636 15.02554317109040
STARLINK-30981          
1 58494U 23186X   25322.25821912 -.00001859  00000+0 -12260-3 0  9992
2 58494  43.0032 312.5632 0001082 287.2759  72.7965 15.02535182109083
STARLINK-31002          
1 58495U 23186Y   25322.25487980 -.00008231  00000+0 -59455-3 0  9994
2 58495  43.0051 312.5386 0001343 279.1348  80.9342 15.02558856109257
STARLINK-31026          
1 58508U 23191A   25322.77069800  .00001024  00000+0  90874-4 0  9991
2 58508  43.0066 349.7626 0001587 264.0142  96.0519 15.02531888108745
STARLINK-31020          
1 58509U 23191B   25322.50156698  .00000168  00000+0  27558-4 0  9992
2 58509  43.0085 352.0387 0001709 285.5081  74.5573 15.02534261108697
STARLINK-30989          
1 58510U 23191C   25322.38379382  .00000538  00000+0  54924-4 0  9995
2 58510  43.0052 351.1657 0001426 274.0212  86.0467 15.02529521108725
STARLINK-30968          
1 58511U 23191D   25322.77932186 -.00002829  00000+0 -19439-3 0  9994
2 58511  43.0052 348.9730 0001440 269.5635  90.5043 15.02547942108756
STARLINK-30982          
1 58512U 23191E   25322.77599830  .00000548  00000+0  55643-4 0  9992
2 58512  43.0057 348.9520 0001461 264.0135  96.0540 15.02534490108754
STARLINK-30998          
1 58513U 23191F   25321.37663826 -.00001613  00000+0 -10433-3 0  9998
2 58513  43.0048 356.5051 0001577 267.0734  92.9928 15.02540938108574
STARLINK-30983          
1 58514U 23191G   25321.79869048  .00000292  00000+0  36672-4 0  9993
2 58514  43.0021 353.6620 0001527 277.6675  82.3994 15.02534047108268
STARLINK-31017          
1 58515U 23191H   25322.75860825 -.00018245  00000+0 -65635-3 0  9994
2 58515  43.0008 137.6360 0002566 285.8047  74.2521 15.27514346111215
STARLINK-31028          
1 58516U 23191J   25322.76600848 -.00000147  00000+0  42022-5 0  9991
2 58516  43.0056 348.8700 0001174 276.7784  83.2925 15.02533316108758
STARLINK-31011          
1 58517U 23191K   25322.76933604 -.00001806  00000+0 -11870-3 0  9990
2 58517  43.0021 348.8969 0000737 293.9909  66.0856 15.02537023108753
STARLINK-31021          
1 58518U 23191L   25321.78869878  .00001068  00000+0  94143-4 0  9996
2 58518  43.0029 353.5652 0001006 263.1496  96.9232 15.02532955108618
STARLINK-31010          
1 58519U 23191M   25321.79202410 -.00000628  00000+0 -31391-4 0  9990
2 58519  43.0017 353.5583 0001013 279.1850  80.8878 15.02535803108611
STARLINK-31003          
1 58520U 23191N   25322.76267657 -.00000683  00000+0 -35536-4 0  9990
2 58520  43.0042 348.8484 0000866 285.8480  74.2266 15.02536047108750
STARLINK-31015          
1 58521U 23191P   25322.75935343 -.00001051  00000+0 -62786-4 0  9991
2 58521  43.0049 348.8261 0000982 268.2509  91.8221 15.02531146108725
STARLINK-31023          
1 58522U 23191Q   25321.82533132 -.00002720  00000+0 -18632-3 0  9993
2 58522  43.0047 353.8528 0001274 279.8805  80.1893 15.02537474108612
STARLINK-30932          
1 58523U 23191R   25321.42313321  .00004718  00000+0  36407-3 0  9993
2 58523  43.0029 355.9963 0000633 304.9957  55.0826 15.02537009108504
STARLINK-30992          
1 58524U 23191S   25321.81866576 -.00000771  00000+0 -41991-4 0  9994
2 58524  43.0065 353.8037 0000723 294.8667  65.2100 15.02541822108617
STARLINK-30948          
1 58525U 23191T   25321.48290460  .00007409  00000+0  56249-3 0  9995
2 58525  43.0047 355.5856 0000581 357.7545   2.3294 15.02566827108564
STARLINK-31013          
1 58526U 23191U   25321.81200708  .00000656  00000+0  63595-4 0  9999
2 58526  43.0061 353.7498 0000927 274.8270  85.2466 15.02536518108612
STARLINK-31001          
1 58527U 23191V   25321.79534647  .00000729  00000+0  69069-4 0  9992
2 58527  43.0075 353.5388 0000847 273.6828  86.3917 15.02532289108615
STARLINK-31004          
1 58528U 23191W   25321.80867655 -.00000304  00000+0 -74411-5 0  9992
2 58528  43.0070 353.7245 0001102 282.8045  77.2674 15.02538227108610
STARLINK-30988          
1 58529U 23191X   25321.80534638 -.00000501  00000+0 -21987-4 0  9993
2 58529  43.0064 353.7029 0000762 285.2349  74.8409 15.02538121108611
STARLINK-31009          
1 58530U 23191Y   25321.46962672 -.00002185  00000+0 -14671-3 0  9991
2 58530  43.0056 355.4824 0000756 294.9739  65.1025 15.02542098108580
STARLINK-31012          
1 58531U 23192A   25322.69817838  .00002987  00000+0  11290-3 0  9994
2 58531  53.1595 218.1772 0001408  65.1169 294.9978 15.30214517108995
STARLINK-31035          
1 58532U 23192B   25322.67654087  .00000946  00000+0  44068-4 0  9991
2 58532  53.1598 205.2327 0001196  94.4970 265.6167 15.30188090109173
STARLINK-31036          
1 58533U 23192C   25322.01142056 -.00004865  00000+0 -15226-3 0  9997
2 58533  53.1604 221.7421 0001216  85.9636 274.1503 15.30192910108889
STARLINK-30936          
1 58534U 23192D   25322.70356925  .00002065  00000+0  81819-4 0  9996
2 58534  53.1585 208.2966 0001210  73.7012 286.4121 15.30202684109130
STARLINK-31032          
1 58535U 23192E   25322.70137091  .00004021  00000+0  14782-3 0  9996
2 58535  53.1601 218.1945 0001121  97.3499 262.7630 15.30194681108991
STARLINK-31037          
1 58536U 23192F   25322.70559525 -.00000692  00000+0 -11248-4 0  9994
2 58536  53.1602 218.2373 0001317 108.3362 251.7782 15.30186728108997
STARLINK-31041          
1 58537U 23192G   25322.70453389  .00000196  00000+0  18758-4 0  9996
2 58537  53.1609 218.2140 0001315 125.0973 235.0151 15.30185362108997
STARLINK-31014          
1 58538U 23192H   25322.71508869  .00001046  00000+0  47462-4 0  9991
2 58538  53.1612 218.2815 0001693  80.3496 279.7696 15.30197402108990
